start=new Date('2023-02-22T00:00:00.000Z').valueOf();
sats=[{"TLE_LINE1":"1 53146U 22083Q   23052.47810456  .00009617  00000-0  62133-3 0  9992","MEAN_MOTION_DOT":"0.00009617","GP_ID":"226276446","TIME_SYSTEM":"UTC","DECAY_DATE":null,"PERIAPSIS":"538.773","APOAPSIS":"540.663","REF_FRAME":"TEME","PERIOD":"95.437","RCS_SIZE":"LARGE","TLE_LINE2":"2 53146  53.2148 127.0369 0001366  96.4438 263.6709 15.08849048 33312","ARG_OF_PERICENTER":"96.4438","MEAN_MOTION":"15.08849048","FILE":"3819803","MEAN_ANOMALY":"263.6709","SEMIMAJOR_AXIS":"6917.853","BSTAR":"0.00062133000000","OBJECT_NAME":"STARLINK-4099","CLASSIFICATION_TYPE":"U","OBJECT_ID":"2022-083Q","ECCENTRICITY":"0.00013660","COUNTRY_CODE":"US","MEAN_ELEMENT_THEORY":"SGP4","EPHEMERIS_TYPE":"0","RA_OF_ASC_NODE":"127.0369","EPOCH":"2023-02-21T11:28:28.233984","INCLINATION":"53.2148","OBJECT_TYPE":"PAYLOAD","NORAD_CAT_ID":"53146","REV_AT_EPOCH":"3331","MEAN_MOTION_DDOT":"0.0000000000000","ELEMENT_SET_NO":"999","LAUNCH_DATE":"2022-07-17","CENTER_NAME":"EARTH","SITE":"AFETR"},{"MEAN_ANOMALY":"250.3497","FILE":"3819803","OBJECT_NAME":"STARLINK-4094","BSTAR":"0.00014347000000","SEMIMAJOR_AXIS":"6917.857","CLASSIFICATION_TYPE":"U","OBJECT_ID":"2022-083R","ECCENTRICITY":"0.00009980","TLE_LINE1":"1 53147U 22083R   23052.52593642  .00001997  00000-0  14347-3 0  9991","GP_ID":"226275200","MEAN_MOTION_DOT":"0.00001997","TIME_SYSTEM":"UTC","PERIAPSIS":"539.032","APOAPSIS":"540.412","REF_FRAME":"TEME","DECAY_DATE":null,"PERIOD":"95.437","RCS_SIZE":"MEDIUM","TLE_LINE2":"2 53147  53.2157 126.8168 0000998 109.7603 250.3497 15.08847670 33977","MEAN_MOTION":"15.08847670","ARG_OF_PERICENTER":"109.7603","OBJECT_TYPE":"PAYLOAD","NORAD_CAT_ID":"53147","REV_AT_EPOCH":"3397","MEAN_MOTION_DDOT":"0.0000000000000","LAUNCH_DATE":"2022-07-17","ELEMENT_SET_NO":"999","CENTER_NAME":"EARTH","SITE":"AFETR","COUNTRY_CODE":"US","MEAN_ELEMENT_THEORY":"SGP4","EPHEMERIS_TYPE":"0","RA_OF_ASC_NODE":"126.8168","EPOCH":"2023-02-21T12:37:20.906688","INCLINATION":"53.2157"},{"RA_OF_ASC_NODE":"126.1982","EPOCH":"2023-02-21T16:00:05.832288","INCLINATION":"53.2173","COUNTRY_CODE":"US","MEAN_ELEMENT_THEORY":"SGP4","EPHEMERIS_TYPE":"0","ELEMENT_SET_NO":"999","LAUNCH_DATE":"2022-07-17","CENTER_NAME":"EARTH","SITE":"AFETR","OBJECT_TYPE":"PAYLOAD","NORAD_CAT_ID":"53148","REV_AT_EPOCH":"3334","MEAN_MOTION_DDOT":"0.0000000000000","PERIOD":"95.437","RCS_SIZE":"LARGE","TLE_LINE2":"2 53148  53.2173 126.1982 0001424  68.0954 292.0189 15.08855236 33343","ARG_OF_PERICENTER":"68.0954","MEAN_MOTION":"15.08855236","TLE_LINE1":"1 53148U 22083S   23052.66673417  .00000485  00000-0  48543-4 0  9993","MEAN_MOTION_DOT":"0.00000485","GP_ID":"226333621","TIME_SYSTEM":"UTC","DECAY_DATE":null,"PERIAPSIS":"538.714","REF_FRAME":"TEME","APOAPSIS":"540.684","OBJECT_ID":"2022-083S","ECCENTRICITY":"0.00014240","FILE":"3821329","MEAN_ANOMALY":"292.0189","SEMIMAJOR_AXIS":"6917.834","BSTAR":"0.00004854300000","OBJECT_NAME":"STARLINK-4066","CLASSIFICATION_TYPE":"U"},{"TLE_LINE2":"2 53149  53.2159 115.2903 0002370  88.7395 271.3868 15.08835351 33518","ARG_OF_PERICENTER":"88.7395","MEAN_MOTION":"15.08835351","PERIOD":"95.438","RCS_SIZE":"LARGE","TIME_SYSTEM":"UTC","DECAY_DATE":null,"APOAPSIS":"541.399","PERIAPSIS":"538.120","REF_FRAME":"TEME","TLE_LINE1":"1 53149U 22083T   23052.86542590 -.00003363  00000-0 -19327-3 0  9990","MEAN_MOTION_DOT":"-0.00003363","GP_ID":"226332369","OBJECT_ID":"2022-083T","ECCENTRICITY":"0.00023700","CLASSIFICATION_TYPE":"U","MEAN_ANOMALY":"271.3868","FILE":"3821329","SEMIMAJOR_AXIS":"6917.895","BSTAR":"-0.00019327000000","OBJECT_NAME":"STARLINK-4021","INCLINATION":"53.2159","RA_OF_ASC_NODE":"115.2903","EPOCH":"2023-02-21T20:46:12.797760","MEAN_ELEMENT_THEORY":"SGP4","EPHEMERIS_TYPE":"0","COUNTRY_CODE":"US","CENTER_NAME":"EARTH","SITE":"AFETR","ELEMENT_SET_NO":"999","LAUNCH_DATE":"2022-07-17","REV_AT_EPOCH":"3351","MEAN_MOTION_DDOT":"0.0000000000000","OBJECT_TYPE":"PAYLOAD","NORAD_CAT_ID":"53149"},{"EPHEMERIS_TYPE":"0","MEAN_ELEMENT_THEORY":"SGP4","COUNTRY_CODE":"US","INCLINATION":"53.2164","EPOCH":"2023-02-21T15:22:57.072576","RA_OF_ASC_NODE":"116.2950","MEAN_MOTION_DDOT":"0.0000000000000","REV_AT_EPOCH":"3347","NORAD_CAT_ID":"53150","OBJECT_TYPE":"PAYLOAD","SITE":"AFETR","CENTER_NAME":"EARTH","ELEMENT_SET_NO":"999","LAUNCH_DATE":"2022-07-17","DECAY_DATE":null,"PERIAPSIS":"538.915","REF_FRAME":"TEME","APOAPSIS":"540.402","TIME_SYSTEM":"UTC","MEAN_MOTION_DOT":"0.00019201","GP_ID":"226332619","TLE_LINE1":"1 53150U 22083U   23052.64093834  .00019201  00000-0  12203-2 0  9991","ARG_OF_PERICENTER":"86.2332","MEAN_MOTION":"15.08868359","TLE_LINE2":"2 53150  53.2164 116.2950 0001075  86.2332 273.8783 15.08868359 33476","RCS_SIZE":"LARGE","PERIOD":"95.436","CLASSIFICATION_TYPE":"U","SEMIMAJOR_AXIS":"6917.794","BSTAR":"0.00122030000000","OBJECT_NAME":"STARLINK-4038","MEAN_ANOMALY":"273.8783","FILE":"3821329","ECCENTRICITY":"0.00010750","OBJECT_ID":"2022-083U"},{"LAUNCH_DATE":"2022-07-17","ELEMENT_SET_NO":"999","CENTER_NAME":"EARTH","SITE":"AFETR","OBJECT_TYPE":"PAYLOAD","NORAD_CAT_ID":"53151","REV_AT_EPOCH":"3348","MEAN_MOTION_DDOT":"0.0000000000000","RA_OF_ASC_NODE":"116.0515","EPOCH":"2023-02-21T16:42:26.161632","INCLINATION":"53.2154","COUNTRY_CODE":"US","MEAN_ELEMENT_THEORY":"SGP4","EPHEMERIS_TYPE":"0","OBJECT_ID":"2022-083V","ECCENTRICITY":"0.00010110","MEAN_ANOMALY":"291.5085","FILE":"3821329","BSTAR":"0.00188220000000","OBJECT_NAME":"STARLINK-4040","SEMIMAJOR_AXIS":"6917.774","CLASSIFICATION_TYPE":"U","PERIOD":"95.435","RCS_SIZE":"LARGE","TLE_LINE2":"2 53151  53.2154 116.0515 0001011  68.6014 291.5085 15.08874844 33481","MEAN_MOTION":"15.08874844","ARG_OF_PERICENTER":"68.6014","TLE_LINE1":"1 53151U 22083V   23052.69613613  .00029823  00000-0  18822-2 0  9994","GP_ID":"226333371","MEAN_MOTION_DOT":"0.00029823","TIME_SYSTEM":"UTC","REF_FRAME":"TEME","PERIAPSIS":"538.939","APOAPSIS":"540.338","DECAY_DATE":null},{"ECCENTRICITY":"0.00013850","OBJECT_ID":"2022-083W","CLASSIFICATION_TYPE":"U","SEMIMAJOR_AXIS":"6917.824","BSTAR":"0.00187520000000","OBJECT_NAME":"STARLINK-4045","FILE":"3819803","MEAN_ANOMALY":"256.9577","ARG_OF_PERICENTER":"103.1570","MEAN_MOTION":"15.08858516","TLE_LINE2":"2 53152  53.2159 117.2055 0001385 103.1570 256.9577 15.08858516 33440","RCS_SIZE":"LARGE","PERIOD":"95.436","DECAY_DATE":null,"APOAPSIS":"540.647","PERIAPSIS":"538.731","REF_FRAME":"TEME","TIME_SYSTEM":"UTC","MEAN_MOTION_DOT":"0.00029697","GP_ID":"226275450","TLE_LINE1":"1 53152U 22083W   23052.43854025  .00029697  00000-0  18752-2 0  9992","SITE":"AFETR","CENTER_NAME":"EARTH","ELEMENT_SET_NO":"999","LAUNCH_DATE":"2022-07-17","MEAN_MOTION_DDOT":"0.0000000000000","REV_AT_EPOCH":"3344","NORAD_CAT_ID":"53152","OBJECT_TYPE":"PAYLOAD","INCLINATION":"53.2159","EPOCH":"2023-02-21T10:31:29.877600","RA_OF_ASC_NODE":"117.2055","EPHEMERIS_TYPE":"0","MEAN_ELEMENT_THEORY":"SGP4","COUNTRY_CODE":"US"},{"MEAN_ELEMENT_THEORY":"SGP4","EPHEMERIS_TYPE":"0","COUNTRY_CODE":"US","INCLINATION":"53.2152","RA_OF_ASC_NODE":"116.6635","EPOCH":"2023-02-21T13:26:22.091424","REV_AT_EPOCH":"3346","MEAN_MOTION_DDOT":"0.0000000000000","OBJECT_TYPE":"PAYLOAD","NORAD_CAT_ID":"53153","CENTER_NAME":"EARTH","SITE":"AFETR","ELEMENT_SET_NO":"999","LAUNCH_DATE":"2022-07-17","TIME_SYSTEM":"UTC","DECAY_DATE":null,"PERIAPSIS":"539.148","APOAPSIS":"540.257","REF_FRAME":"TEME","TLE_LINE1":"1 53153U 22083X   23052.55997791  .00033976  00000-0  21418-2 0  9992","MEAN_MOTION_DOT":"0.00033976","GP_ID":"226276201","TLE_LINE2":"2 53153  53.2152 116.6635 0000802 118.2667 241.8406 15.08853973 33466","ARG_OF_PERICENTER":"118.2667","MEAN_MOTION":"15.08853973","PERIOD":"95.437","RCS_SIZE":"LARGE","CLASSIFICATION_TYPE":"U","FILE":"3819803","MEAN_ANOMALY":"241.8406","SEMIMAJOR_AXIS":"6917.838","OBJECT_NAME":"STARLINK-4098","BSTAR":"0.00214180000000","OBJECT_ID":"2022-083X","ECCENTRICITY":"0.00008020"},{"OBJECT_TYPE":"PAYLOAD","NORAD_CAT_ID":"53154","REV_AT_EPOCH":"3348","MEAN_MOTION_DDOT":"0.0000000000000","LAUNCH_DATE":"2022-07-17","ELEMENT_SET_NO":"999","CENTER_NAME":"EARTH","SITE":"AFETR","COUNTRY_CODE":"US","MEAN_ELEMENT_THEORY":"SGP4","EPHEMERIS_TYPE":"0","RA_OF_ASC_NODE":"116.0377","EPOCH":"2023-02-21T16:47:44.190528","INCLINATION":"53.2156","FILE":"3821329","MEAN_ANOMALY":"262.6940","BSTAR":"0.00174390000000","OBJECT_NAME":"STARLINK-4077","SEMIMAJOR_AXIS":"6917.778","CLASSIFICATION_TYPE":"U","OBJECT_ID":"2022-083Y","ECCENTRICITY":"0.00013120","TLE_LINE1":"1 53154U 22083Y   23052.69981702  .00027601  00000-0  17439-2 0  9999","GP_ID":"226332120","MEAN_MOTION_DOT":"0.00027601","TIME_SYSTEM":"UTC","PERIAPSIS":"538.735","APOAPSIS":"540.551","REF_FRAME":"TEME","DECAY_DATE":null,"PERIOD":"95.435","RCS_SIZE":"LARGE","TLE_LINE2":"2 53154  53.2156 116.0377 0001312  97.4201 262.6940 15.08873467 33483","MEAN_MOTION":"15.08873467","ARG_OF_PERICENTER":"97.4201"},{"OBJECT_ID":"2022-083Z","ECCENTRICITY":"0.00013600","FILE":"3821329","MEAN_ANOMALY":"263.1678","BSTAR":"0.00152310000000","OBJECT_NAME":"STARLINK-4088","SEMIMAJOR_AXIS":"6917.818","CLASSIFICATION_TYPE":"U","PERIOD":"95.436","RCS_SIZE":"LARGE","TLE_LINE2":"2 53155  53.2158 116.1060 0001360  96.9469 263.1678 15.08860369 34122","MEAN_MOTION":"15.08860369","ARG_OF_PERICENTER":"96.9469","TLE_LINE1":"1 53155U 22083Z   23052.68509715  .00024049  00000-0  15231-2 0  9990","GP_ID":"226332872","MEAN_MOTION_DOT":"0.00024049","TIME_SYSTEM":"UTC","REF_FRAME":"TEME","PERIAPSIS":"538.742","APOAPSIS":"540.624","DECAY_DATE":null,"LAUNCH_DATE":"2022-07-17","ELEMENT_SET_NO":"999","CENTER_NAME":"EARTH","SITE":"AFETR","OBJECT_TYPE":"PAYLOAD","NORAD_CAT_ID":"53155","REV_AT_EPOCH":"3412","MEAN_MOTION_DDOT":"0.0000000000000","RA_OF_ASC_NODE":"116.1060","EPOCH":"2023-02-21T16:26:32.393760","INCLINATION":"53.2158","COUNTRY_CODE":"US","MEAN_ELEMENT_THEORY":"SGP4","EPHEMERIS_TYPE":"0"}];
